{
  "type": "FeatureCollection",
  "features": [
    {
      "type": "Feature",
      "properties": {
        "norad_id": 66975,
        "name": "STARLINK-35777",
        "group": "last-30-days",
        "lat": -37.79079328075917,
        "lon": 39.1064282229321,
        "alt_km": 364.32483390055586,
        "timestamp": "2025-12-24T11:32:58.721034+00:00",
        "meta_object_name": "STARLINK-35777",
        "meta_object_id": "2025-288S",
        "meta_epoch": "2025-12-24T04:00:01.998720",
        "meta_mean_motion": 15.70157521,
        "meta_eccentricity": 0.0001513,
        "meta_inclination": 43.0003,
        "meta_ra_of_asc_node": 97.3181,
        "meta_arg_of_pericenter": 268.9527,
        "meta_mean_anomaly": 47.6726,
        "meta_ephemeris_type": 0,
        "meta_classification_type": "U",
        "meta_norad_cat_id": 66975,
        "meta_element_set_no": 999,
        "meta_rev_at_epoch": 366,
        "meta_bstar": -0.017316,
        "meta_mean_motion_dot": -0.01914804,
        "meta_mean_motion_ddot": 0,
        "tle_line1": "1 66975U 25288S   25358.16668980 -.01914804  00000+0 -17316-1 0  9992",
        "tle_line2": "2 66975  43.0003  97.3181 0001513 268.9527  47.6726 15.70157521  3664"
      },
      "geometry": {
        "type": "Point",
        "coordinates": [
          39.1064282229321,
          -37.79079328075917
        ]
      }
    },
    {
      "type": "Feature",
      "properties": {
        "norad_id": 66976,
        "name": "STARLINK-35772",
        "group": "last-30-days",
        "lat": -41.52217190836401,
        "lon": -11.750229635559535,
        "alt_km": 425.59531402677294,
        "timestamp": "2025-12-24T11:32:58.721046+00:00",
        "meta_object_name": "STARLINK-35772",
        "meta_object_id": "2025-288T",
        "meta_epoch": "2025-12-24T04:00:01.998720",
        "meta_mean_motion": 15.49280755,
        "meta_eccentricity": 0.0001294,
        "meta_inclination": 43.0005,
        "meta_ra_of_asc_node": 98.2511,
        "meta_arg_of_pericenter": 262.4122,
        "meta_mean_anomaly": 38.4779,
        "meta_ephemeris_type": 0,
        "meta_classification_type": "U",
        "meta_norad_cat_id": 66976,
        "meta_element_set_no": 999,
        "meta_rev_at_epoch": 366,
        "meta_bstar": -0.043683,
        "meta_mean_motion_dot": -0.02163871,
        "meta_mean_motion_ddot": 0,
        "tle_line1": "1 66976U 25288T   25358.16668980 -.02163871  00000+0 -43683-1 0  9990",
        "tle_line2": "2 66976  43.0005  98.2511 0001294 262.4122  38.4779 15.49280755  3668"
      },
      "geometry": {
        "type": "Point",
        "coordinates": [
          -11.750229635559535,
          -41.52217190836401
        ]
      }
    },
    {
      "type": "Feature",
      "properties": {
        "norad_id": 66977,
        "name": "STARLINK-35770",
        "group": "last-30-days",
        "lat": -37.04396713579829,
        "lon": 41.329039862907955,
        "alt_km": 364.3806048181541,
        "timestamp": "2025-12-24T11:32:58.721057+00:00",
        "meta_object_name": "STARLINK-35770",
        "meta_object_id": "2025-288U",
        "meta_epoch": "2025-12-24T04:00:01.998720",
        "meta_mean_motion": 15.7016799,
        "meta_eccentricity": 0.0001413,
        "meta_inclination": 43.0003,
        "meta_ra_of_asc_node": 97.314,
        "meta_arg_of_pericenter": 269.262,
        "meta_mean_anomaly": 49.2833,
        "meta_ephemeris_type": 0,
        "meta_classification_type": "U",
        "meta_norad_cat_id": 66977,
        "meta_element_set_no": 999,
        "meta_rev_at_epoch": 366,
        "meta_bstar": -0.01753,
        "meta_mean_motion_dot": -0.0193647,
        "meta_mean_motion_ddot": 0,
        "tle_line1": "1 66977U 25288U   25358.16668980 -.01936470  00000+0 -17530-1 0  9995",
        "tle_line2": "2 66977  43.0003  97.3140 0001413 269.2620  49.2833 15.70167990  3666"
      },
      "geometry": {
        "type": "Point",
        "coordinates": [
          41.329039862907955,
          -37.04396713579829
        ]
      }
    },
    {
      "type": "Feature",
      "properties": {
        "norad_id": 66978,
        "name": "STARLINK-35787",
        "group": "last-30-days",
        "lat": -34.57351581834535,
        "lon": 47.710516379241874,
        "alt_km": 364.181974009668,
        "timestamp": "2025-12-24T11:32:58.721067+00:00",
        "meta_object_name": "STARLINK-35787",
        "meta_object_id": "2025-288V",
        "meta_epoch": "2025-12-24T04:00:01.998720",
        "meta_mean_motion": 15.70164432,
        "meta_eccentricity": 0.000155,
        "meta_inclination": 43.0002,
        "meta_ra_of_asc_node": 97.2991,
        "meta_arg_of_pericenter": 273.1999,
        "meta_mean_anomaly": 51.0978,
        "meta_ephemeris_type": 0,
        "meta_classification_type": "U",
        "meta_norad_cat_id": 66978,
        "meta_element_set_no": 999,
        "meta_rev_at_epoch": 366,
        "meta_bstar": -0.017485,
        "meta_mean_motion_dot": -0.01931861,
        "meta_mean_motion_ddot": 0,
        "tle_line1": "1 66978U 25288V   25358.16668980 -.01931861  00000+0 -17485-1 0  9994",
        "tle_line2": "2 66978  43.0002  97.2991 0001550 273.1999  51.0978 15.70164432  3663"
      },
      "geometry": {
        "type": "Point",
        "coordinates": [
          47.710516379241874,
          -34.57351581834535
        ]
      }
    },
    {
      "type": "Feature",
      "properties": {
        "norad_id": 66979,
        "name": "STARLINK-36107",
        "group": "last-30-days",
        "lat": -33.676834780477385,
        "lon": 49.75224694635633,
        "alt_km": 364.21479039174847,
        "timestamp": "2025-12-24T11:32:58.721079+00:00",
        "meta_object_name": "STARLINK-36107",
        "meta_object_id": "2025-288W",
        "meta_epoch": "2025-12-24T04:00:01.998720",
        "meta_mean_motion": 15.70168318,
        "meta_eccentricity": 0.00015,
        "meta_inclination": 43.0002,
        "meta_ra_of_asc_node": 97.2942,
        "meta_arg_of_pericenter": 270.4954,
        "meta_mean_anomaly": 55.7181,
        "meta_ephemeris_type": 0,
        "meta_classification_type": "U",
        "meta_norad_cat_id": 66979,
        "meta_element_set_no": 999,
        "meta_rev_at_epoch": 366,
        "meta_bstar": -0.017533,
        "meta_mean_motion_dot": -0.01936876,
        "meta_mean_motion_ddot": 0,
        "tle_line1": "1 66979U 25288W   25358.16668980 -.01936876  00000+0 -17533-1 0  9990",
        "tle_line2": "2 66979  43.0002  97.2942 0001500 270.4954  55.7181 15.70168318  3660"
      },
      "geometry": {
        "type": "Point",
        "coordinates": [
          49.75224694635633,
          -33.676834780477385
        ]
      }
    },
    {
      "type": "Feature",
      "properties": {
        "norad_id": 66980,
        "name": "STARLINK-36086",
        "group": "last-30-days",
        "lat": -32.749480910988005,
        "lon": 51.746223723387665,
        "alt_km": 364.17242112072927,
        "timestamp": "2025-12-24T11:32:58.721089+00:00",
        "meta_object_name": "STARLINK-36086",
        "meta_object_id": "2025-288X",
        "meta_epoch": "2025-12-24T04:00:01.998720",
        "meta_mean_motion": 15.70160035,
        "meta_eccentricity": 0.0001575,
        "meta_inclination": 43.0004,
        "meta_ra_of_asc_node": 97.2891,
        "meta_arg_of_pericenter": 267.2607,
        "meta_mean_anomaly": 60.8665,
        "meta_ephemeris_type": 0,
        "meta_classification_type": "U",
        "meta_norad_cat_id": 66980,
        "meta_element_set_no": 999,
        "meta_rev_at_epoch": 366,
        "meta_bstar": -0.017345,
        "meta_mean_motion_dot": -0.01917881,
        "meta_mean_motion_ddot": 0,
        "tle_line1": "1 66980U 25288X   25358.16668980 -.01917881  00000+0 -17345-1 0  9998",
        "tle_line2": "2 66980  43.0004  97.2891 0001575 267.2607  60.8665 15.70160035  3660"
      },
      "geometry": {
        "type": "Point",
        "coordinates": [
          51.746223723387665,
          -32.749480910988005
        ]
      }
    },
    {
      "type": "Feature",
      "properties": {
        "norad_id": 66981,
        "name": "STARLINK-36142",
        "group": "last-30-days",
        "lat": -31.78975236092368,
        "lon": 53.70114465614439,
        "alt_km": 364.10343897015264,
        "timestamp": "2025-12-24T11:32:58.721101+00:00",
        "meta_object_name": "STARLINK-36142",
        "meta_object_id": "2025-288Y",
        "meta_epoch": "2025-12-24T04:00:01.998720",
        "meta_mean_motion": 15.70154934,
        "meta_eccentricity": 0.0001598,
        "meta_inclination": 43.0004,
        "meta_ra_of_asc_node": 97.2846,
        "meta_arg_of_pericenter": 269.1642,
        "meta_mean_anomaly": 60.8832,
        "meta_ephemeris_type": 0,
        "meta_classification_type": "U",
        "meta_norad_cat_id": 66981,
        "meta_element_set_no": 999,
        "meta_rev_at_epoch": 366,
        "meta_bstar": -0.017292,
        "meta_mean_motion_dot": -0.01912333,
        "meta_mean_motion_ddot": 0,
        "tle_line1": "1 66981U 25288Y   25358.16668980 -.01912333  00000+0 -17292-1 0  9997",
        "tle_line2": "2 66981  43.0004  97.2846 0001598 269.1642  60.8832 15.70154934  3663"
      },
      "geometry": {
        "type": "Point",
        "coordinates": [
          53.70114465614439,
          -31.78975236092368
        ]
      }
    }
  ]
}